{
  "type": "FeatureCollection",
  "features": [
    {
      "type": "Feature",
      "properties": {
        "norad_id": 34010,
        "name": "COSMOS 2251 DEB",
        "group": "cosmos-2251-debris",
        "lat": 31.767026723670792,
        "lon": -85.07789292102683,
        "alt_km": 500.7928971226129,
        "timestamp": "2025-12-21T14:40:48.312166+00:00",
        "meta_object_name": "COSMOS 2251 DEB",
        "meta_object_id": "1993-036GV",
        "meta_epoch": "2025-12-21T03:28:38.188416",
        "meta_mean_motion": 15.19988919,
        "meta_eccentricity": 0.00044935,
        "meta_inclination": 73.9992,
        "meta_ra_of_asc_node": 265.6668,
        "meta_arg_of_pericenter": 59.4381,
        "meta_mean_anomaly": 300.7259,
        "meta_ephemeris_type": 0,
        "meta_classification_type": "U",
        "meta_norad_cat_id": 34010,
        "meta_element_set_no": 999,
        "meta_rev_at_epoch": 89413,
        "meta_bstar": 0.0026689364,
        "meta_mean_motion_dot": 0.00057927,
        "meta_mean_motion_ddot": 0,
        "tle_line1": "1 34010U 93036GV  25355.14488644  .00057927  00000+0  26689-2 0  9990",
        "tle_line2": "2 34010  73.9992 265.6668 0004493  59.4381 300.7259 15.19988919894139"
      },
      "geometry": {
        "type": "Point",
        "coordinates": [
          -85.07789292102683,
          31.767026723670792
        ]
      }
    },
    {
      "type": "Feature",
      "properties": {
        "norad_id": 34011,
        "name": "COSMOS 2251 DEB",
        "group": "cosmos-2251-debris",
        "lat": -28.122295833249005,
        "lon": 142.49829509073206,
        "alt_km": 783.5826672637586,
        "timestamp": "2025-12-21T14:40:48.312176+00:00",
        "meta_object_name": "COSMOS 2251 DEB",
        "meta_object_id": "1993-036GW",
        "meta_epoch": "2025-12-20T21:03:41.222016",
        "meta_mean_motion": 14.41804306,
        "meta_eccentricity": 0.0036046,
        "meta_inclination": 74.0145,
        "meta_ra_of_asc_node": 315.0473,
        "meta_arg_of_pericenter": 36.2778,
        "meta_mean_anomaly": 324.0811,
        "meta_ephemeris_type": 0,
        "meta_classification_type": "U",
        "meta_norad_cat_id": 34011,
        "meta_element_set_no": 999,
        "meta_rev_at_epoch": 88033,
        "meta_bstar": 0.00051243,
        "meta_mean_motion_dot": 1.661e-05,
        "meta_mean_motion_ddot": 0,
        "tle_line1": "1 34011U 93036GW  25354.87756044  .00001661  00000+0  51243-3 0  9991",
        "tle_line2": "2 34011  74.0145 315.0473 0036046  36.2778 324.0811 14.41804306880339"
      },
      "geometry": {
        "type": "Point",
        "coordinates": [
          142.49829509073206,
          -28.122295833249005
        ]
      }
    },
    {
      "type": "Feature",
      "properties": {
        "norad_id": 34014,
        "name": "COSMOS 2251 DEB",
        "group": "cosmos-2251-debris",
        "lat": 63.42066729766019,
        "lon": -61.63358889729979,
        "alt_km": 620.9741291545079,
        "timestamp": "2025-12-21T14:40:48.312186+00:00",
        "meta_object_name": "COSMOS 2251 DEB",
        "meta_object_id": "1993-036GZ",
        "meta_epoch": "2025-12-21T05:08:14.141184",
        "meta_mean_motion": 14.73228686,
        "meta_eccentricity": 0.00374091,
        "meta_inclination": 74.0175,
        "meta_ra_of_asc_node": 264.1922,
        "meta_arg_of_pericenter": 41.4794,
        "meta_mean_anomaly": 78.904,
        "meta_ephemeris_type": 0,
        "meta_classification_type": "U",
        "meta_norad_cat_id": 34014,
        "meta_element_set_no": 999,
        "meta_rev_at_epoch": 89428,
        "meta_bstar": 0.00058417491,
        "meta_mean_motion_dot": 3.783e-05,
        "meta_mean_motion_ddot": 0,
        "tle_line1": "1 34014U 93036GZ  25355.21405256  .00003783  00000+0  58417-3 0  9996",
        "tle_line2": "2 34014  74.0175 264.1922 0037409  41.4794  78.9040 14.73228686894282"
      },
      "geometry": {
        "type": "Point",
        "coordinates": [
          -61.63358889729979,
          63.42066729766019
        ]
      }
    },
    {
      "type": "Feature",
      "properties": {
        "norad_id": 34015,
        "name": "COSMOS 2251 DEB",
        "group": "cosmos-2251-debris",
        "lat": 44.34419612180234,
        "lon": -53.78499385136163,
        "alt_km": 691.885074865736,
        "timestamp": "2025-12-21T14:40:48.312196+00:00",
        "meta_object_name": "COSMOS 2251 DEB",
        "meta_object_id": "1993-036HA",
        "meta_epoch": "2025-12-20T18:50:46.114944",
        "meta_mean_motion": 14.60348328,
        "meta_eccentricity": 0.00209697,
        "meta_inclination": 74.0238,
        "meta_ra_of_asc_node": 144.0536,
        "meta_arg_of_pericenter": 240.7045,
        "meta_mean_anomaly": 229.9143,
        "meta_ephemeris_type": 0,
        "meta_classification_type": "U",
        "meta_norad_cat_id": 34015,
        "meta_element_set_no": 999,
        "meta_rev_at_epoch": 88648,
        "meta_bstar": 0.00094513855,
        "meta_mean_motion_dot": 4.557e-05,
        "meta_mean_motion_ddot": 0,
        "tle_line1": "1 34015U 93036HA  25354.78525596  .00004557  00000+0  94514-3 0  9996",
        "tle_line2": "2 34015  74.0238 144.0536 0020969 240.7045 229.9143 14.60348328886483"
      },
      "geometry": {
        "type": "Point",
        "coordinates": [
          -53.78499385136163,
          44.34419612180234
        ]
      }
    },
    {
      "type": "Feature",
      "properties": {
        "norad_id": 34018,
        "name": "COSMOS 2251 DEB",
        "group": "cosmos-2251-debris",
        "lat": -73.83192833342872,
        "lon": -16.902815133220592,
        "alt_km": 1144.9672776019024,
        "timestamp": "2025-12-21T14:40:48.312206+00:00",
        "meta_object_name": "COSMOS 2251 DEB",
        "meta_object_id": "1993-036HD",
        "meta_epoch": "2025-12-21T06:43:04.931616",
        "meta_mean_motion": 13.81081009,
        "meta_eccentricity": 0.02632772,
        "meta_inclination": 73.878,
        "meta_ra_of_asc_node": 77.6238,
        "meta_arg_of_pericenter": 111.8742,
        "meta_mean_anomaly": 307.0391,
        "meta_ephemeris_type": 0,
        "meta_classification_type": "U",
        "meta_norad_cat_id": 34018,
        "meta_element_set_no": 999,
        "meta_rev_at_epoch": 84775,
        "meta_bstar": 0.00029152288,
        "meta_mean_motion_dot": 3.79e-06,
        "meta_mean_motion_ddot": 0,
        "tle_line1": "1 34018U 93036HD  25355.27991819  .00000379  00000+0  29152-3 0  9993",
        "tle_line2": "2 34018  73.8780  77.6238 0263277 111.8742 307.0391 13.81081009847750"
      },
      "geometry": {
        "type": "Point",
        "coordinates": [
          -16.902815133220592,
          -73.83192833342872
        ]
      }
    },
    {
      "type": "Feature",
      "properties": {
        "norad_id": 34019,
        "name": "COSMOS 2251 DEB",
        "group": "cosmos-2251-debris",
        "lat": -70.71701967322265,
        "lon": -20.923487379542674,
        "alt_km": 767.3733064965872,
        "timestamp": "2025-12-21T14:40:48.312216+00:00",
        "meta_object_name": "COSMOS 2251 DEB",
        "meta_object_id": "1993-036HE",
        "meta_epoch": "2025-12-21T05:19:10.216992",
        "meta_mean_motion": 14.33972929,
        "meta_eccentricity": 0.00623957,
        "meta_inclination": 73.9539,
        "meta_ra_of_asc_node": 35.1411,
        "meta_arg_of_pericenter": 215.1393,
        "meta_mean_anomaly": 212.4319,
        "meta_ephemeris_type": 0,
        "meta_classification_type": "U",
        "meta_norad_cat_id": 34019,
        "meta_element_set_no": 999,
        "meta_rev_at_epoch": 87642,
        "meta_bstar": 0.00059723757,
        "meta_mean_motion_dot": 1.677e-05,
        "meta_mean_motion_ddot": 0,
        "tle_line1": "1 34019U 93036HE  25355.22164603  .00001677  00000+0  59724-3 0  9992",
        "tle_line2": "2 34019  73.9539  35.1411 0062395 215.1393 212.4319 14.33972929876427"
      },
      "geometry": {
        "type": "Point",
        "coordinates": [
          -20.923487379542674,
          -70.71701967322265
        ]
      }
    },
    {
      "type": "Feature",
      "properties": {
        "norad_id": 34021,
        "name": "COSMOS 2251 DEB",
        "group": "cosmos-2251-debris",
        "lat": 9.746949973075946,
        "lon": -69.647938519494,
        "alt_km": 726.0833175531998,
        "timestamp": "2025-12-21T14:40:48.312226+00:00",
        "meta_object_name": "COSMOS 2251 DEB",
        "meta_object_id": "1993-036HG",
        "meta_epoch": "2025-12-21T07:22:26.768064",
        "meta_mean_motion": 14.499761,
        "meta_eccentricity": 0.00209856,
        "meta_inclination": 74.036,
        "meta_ra_of_asc_node": 113.7419,
        "meta_arg_of_pericenter": 257.0004,
        "meta_mean_anomaly": 124.6064,
        "meta_ephemeris_type": 0,
        "meta_classification_type": "U",
        "meta_norad_cat_id": 34021,
        "meta_element_set_no": 999,
        "meta_rev_at_epoch": 88754,
        "meta_bstar": 0.00036356003,
        "meta_mean_motion_dot": 1.383e-05,
        "meta_mean_motion_ddot": 0,
        "tle_line1": "1 34021U 93036HG  25355.30725426  .00001383  00000+0  36356-3 0  9990",
        "tle_line2": "2 34021  74.0360 113.7419 0020985 257.0004 124.6064 14.49976100887546"
      },
      "geometry": {
        "type": "Point",
        "coordinates": [
          -69.647938519494,
          9.746949973075946
        ]
      }
    }
  ]
}